[
  {
    "COMMENT": "GENERATED VIA SPACETRACK.ORG API",
    "ORIGINATOR": "18 SPCS",
    "NORAD_CAT_ID": "46984",
    "OBJECT_NAME": "S6 MICHAEL FREILICH",
    "OBJECT_TYPE": "PAYLOAD",
    "CLASSIFICATION_TYPE": "U",
    "INTLDES": "20086A",
    "EPOCH": "2023-07-03 10:50:05",
    "EPOCH_MICROSECONDS": "576352",
    "MEAN_MOTION": "12.80930078",
    "ECCENTRICITY": "0.0008099",
    "INCLINATION": "66.0391",
    "RA_OF_ASC_NODE": "217.6748",
    "ARG_OF_PERICENTER": "269.3245",
    "MEAN_ANOMALY": "90.6842",
    "EPHEMERIS_TYPE": "0",
    "ELEMENT_SET_NO": "999",
    "REV_AT_EPOCH": "12216",
    "BSTAR": "0.00015709",
    "MEAN_MOTION_DOT": "-0.00000025",
    "MEAN_MOTION_DDOT": "0",
    "FILE": "3948461",
    "TLE_LINE0": "0 S6 MICHAEL FREILICH",
    "TLE_LINE1": "1 46984U 20086A   23184.45145343 -.00000025  00000-0  15709-3 0  9997",
    "TLE_LINE2": "2 46984  66.0391 217.6748 0008099 269.3245  90.6842 12.80930078122169",
    "OBJECT_ID": "2020-086A",
    "OBJECT_NUMBER": "46984",
    "SEMIMAJOR_AXIS": "7715.870",
    "PERIOD": "112.418",
    "APOGEE": "1343.984",
    "PERIGEE": "1331.486",
    "DECAYED": "0"
  },
  {
    "COMMENT": "GENERATED VIA SPACETRACK.ORG API",
    "ORIGINATOR": "18 SPCS",
    "NORAD_CAT_ID": "46984",
    "OBJECT_NAME": "S6 MICHAEL FREILICH",
    "OBJECT_TYPE": "PAYLOAD",
    "CLASSIFICATION_TYPE": "U",
    "INTLDES": "20086A",
    "EPOCH": "2023-07-04 11:11:40",
    "EPOCH_MICROSECONDS": "444512",
    "MEAN_MOTION": "12.80930147",
    "ECCENTRICITY": "0.0008097",
    "INCLINATION": "66.039",
    "RA_OF_ASC_NODE": "215.5667",
    "ARG_OF_PERICENTER": "269.3241",
    "MEAN_ANOMALY": "90.6846",
    "EPHEMERIS_TYPE": "0",
    "ELEMENT_SET_NO": "999",
    "REV_AT_EPOCH": "12229",
    "BSTAR": "0.00012487",
    "MEAN_MOTION_DOT": "-0.00000032",
    "MEAN_MOTION_DDOT": "0",
    "FILE": "3949373",
    "TLE_LINE0": "0 S6 MICHAEL FREILICH",
    "TLE_LINE1": "1 46984U 20086A   23185.46644033 -.00000032  00000-0  12487-3 0  9997",
    "TLE_LINE2": "2 46984  66.0390 215.5667 0008097 269.3241  90.6846 12.80930147122294",
    "OBJECT_ID": "2020-086A",
    "OBJECT_NUMBER": "46984",
    "SEMIMAJOR_AXIS": "7715.870",
    "PERIOD": "112.418",
    "APOGEE": "1343.982",
    "PERIGEE": "1331.487",
    "DECAYED": "0"
  },
  {
    "COMMENT": "GENERATED VIA SPACETRACK.ORG API",
    "ORIGINATOR": "18 SPCS",
    "NORAD_CAT_ID": "46984",
    "OBJECT_NAME": "S6 MICHAEL FREILICH",
    "OBJECT_TYPE": "PAYLOAD",
    "CLASSIFICATION_TYPE": "U",
    "INTLDES": "20086A",
    "EPOCH": "2023-07-05 11:33:15",
    "EPOCH_MICROSECONDS": "310944",
    "MEAN_MOTION": "12.80930159",
    "ECCENTRICITY": "0.0008105",
    "INCLINATION": "66.0389",
    "RA_OF_ASC_NODE": "213.4585",
    "ARG_OF_PERICENTER": "269.315",
    "MEAN_ANOMALY": "90.6936",
    "EPHEMERIS_TYPE": "0",
    "ELEMENT_SET_NO": "999",
    "REV_AT_EPOCH": "12242",
    "BSTAR": "0.000070912",
    "MEAN_MOTION_DOT": "-0.00000045",
    "MEAN_MOTION_DDOT": "0",
    "FILE": "3950435",
    "TLE_LINE0": "0 S6 MICHAEL FREILICH",
    "TLE_LINE1": "1 46984U 20086A   23186.48142721 -.00000045  00000-0  70912-4 0  9999",
    "TLE_LINE2": "2 46984  66.0389 213.4585 0008105 269.3150  90.6936 12.80930159122425",
    "OBJECT_ID": "2020-086A",
    "OBJECT_NUMBER": "46984",
    "SEMIMAJOR_AXIS": "7715.870",
    "PERIOD": "112.418",
    "APOGEE": "1343.988",
    "PERIGEE": "1331.481",
    "DECAYED": "0"
  },
  {
    "COMMENT": "GENERATED VIA SPACETRACK.ORG API",
    "ORIGINATOR": "18 SPCS",
    "NORAD_CAT_ID": "46984",
    "OBJECT_NAME": "S6 MICHAEL FREILICH",
    "OBJECT_TYPE": "PAYLOAD",
    "CLASSIFICATION_TYPE": "U",
    "INTLDES": "20086A",
    "EPOCH": "2023-07-06 19:24:33",
    "EPOCH_MICROSECONDS": "204096",
    "MEAN_MOTION": "12.80930264",
    "ECCENTRICITY": "0.0008105",
    "INCLINATION": "66.0387",
    "RA_OF_ASC_NODE": "210.7017",
    "ARG_OF_PERICENTER": "269.3309",
    "MEAN_ANOMALY": "90.6778",
    "EPHEMERIS_TYPE": "0",
    "ELEMENT_SET_NO": "999",
    "REV_AT_EPOCH": "12259",
    "BSTAR": "0.000046381",
    "MEAN_MOTION_DOT": "-0.0000005",
    "MEAN_MOTION_DDOT": "0",
    "FILE": "3951359",
    "TLE_LINE0": "0 S6 MICHAEL FREILICH",
    "TLE_LINE1": "1 46984U 20086A   23187.80871764 -.00000050  00000-0  46381-4 0  9991",
    "TLE_LINE2": "2 46984  66.0387 210.7017 0008105 269.3309  90.6778 12.80930264122598",
    "OBJECT_ID": "2020-086A",
    "OBJECT_NUMBER": "46984",
    "SEMIMAJOR_AXIS": "7715.869",
    "PERIOD": "112.418",
    "APOGEE": "1343.988",
    "PERIGEE": "1331.480",
    "DECAYED": "0"
  },
  {
    "COMMENT": "GENERATED VIA SPACETRACK.ORG API",
    "ORIGINATOR": "18 SPCS",
    "NORAD_CAT_ID": "46984",
    "OBJECT_NAME": "S6 MICHAEL FREILICH",
    "OBJECT_TYPE": "PAYLOAD",
    "CLASSIFICATION_TYPE": "U",
    "INTLDES": "20086A",
    "EPOCH": "2023-07-08 07:00:42",
    "EPOCH_MICROSECONDS": "624000",
    "MEAN_MOTION": "12.8093025",
    "ECCENTRICITY": "0.0008106",
    "INCLINATION": "66.0385",
    "RA_OF_ASC_NODE": "207.6205",
    "ARG_OF_PERICENTER": "269.2874",
    "MEAN_ANOMALY": "90.7212",
    "EPHEMERIS_TYPE": "0",
    "ELEMENT_SET_NO": "999",
    "REV_AT_EPOCH": "12278",
    "BSTAR": "0.000014519",
    "MEAN_MOTION_DOT": "-0.00000058",
    "MEAN_MOTION_DDOT": "0",
    "FILE": "3952774",
    "TLE_LINE0": "0 S6 MICHAEL FREILICH",
    "TLE_LINE1": "1 46984U 20086A   23189.29216000 -.00000058  00000-0  14519-4 0  9998",
    "TLE_LINE2": "2 46984  66.0385 207.6205 0008106 269.2874  90.7212 12.80930250122787",
    "OBJECT_ID": "2020-086A",
    "OBJECT_NUMBER": "46984",
    "SEMIMAJOR_AXIS": "7715.869",
    "PERIOD": "112.418",
    "APOGEE": "1343.989",
    "PERIGEE": "1331.480",
    "DECAYED": "0"
  },
  {
    "COMMENT": "GENERATED VIA SPACETRACK.ORG API",
    "ORIGINATOR": "18 SPCS",
    "NORAD_CAT_ID": "46984",
    "OBJECT_NAME": "S6 MICHAEL FREILICH",
    "OBJECT_TYPE": "PAYLOAD",
    "CLASSIFICATION_TYPE": "U",
    "INTLDES": "20086A",
    "EPOCH": "2023-07-09 11:07:09",
    "EPOCH_MICROSECONDS": "9408",
    "MEAN_MOTION": "12.80930299",
    "ECCENTRICITY": "0.0008104",
    "INCLINATION": "66.0384",
    "RA_OF_ASC_NODE": "205.188",
    "ARG_OF_PERICENTER": "269.2982",
    "MEAN_ANOMALY": "90.7105",
    "EPHEMERIS_TYPE": "0",
    "ELEMENT_SET_NO": "999",
    "REV_AT_EPOCH": "12293",
    "BSTAR": "0.000056223",
    "MEAN_MOTION_DOT": "-0.00000048",
    "MEAN_MOTION_DDOT": "0",
    "FILE": "3953692",
    "TLE_LINE0": "0 S6 MICHAEL FREILICH",
    "TLE_LINE1": "1 46984U 20086A   23190.46329872 -.00000048  00000-0  56223-4 0  9998",
    "TLE_LINE2": "2 46984  66.0384 205.1880 0008104 269.2982  90.7105 12.80930299122937",
    "OBJECT_ID": "2020-086A",
    "OBJECT_NUMBER": "46984",
    "SEMIMAJOR_AXIS": "7715.869",
    "PERIOD": "112.418",
    "APOGEE": "1343.987",
    "PERIGEE": "1331.481",
    "DECAYED": "0"
  },
  {
    "COMMENT": "GENERATED VIA SPACETRACK.ORG API",
    "ORIGINATOR": "18 SPCS",
    "NORAD_CAT_ID": "46984",
    "OBJECT_NAME": "S6 MICHAEL FREILICH",
    "OBJECT_TYPE": "PAYLOAD",
    "CLASSIFICATION_TYPE": "U",
    "INTLDES": "20086A",
    "EPOCH": "2023-07-10 11:28:43",
    "EPOCH_MICROSECONDS": "873248",
    "MEAN_MOTION": "12.8093032",
    "ECCENTRICITY": "0.0008107",
    "INCLINATION": "66.0384",
    "RA_OF_ASC_NODE": "203.0798",
    "ARG_OF_PERICENTER": "269.3032",
    "MEAN_ANOMALY": "90.7054",
    "EPHEMERIS_TYPE": "0",
    "ELEMENT_SET_NO": "999",
    "REV_AT_EPOCH": "12306",
    "BSTAR": "0.000070103",
    "MEAN_MOTION_DOT": "-0.00000045",
    "MEAN_MOTION_DDOT": "0",
    "FILE": "3954533",
    "TLE_LINE0": "0 S6 MICHAEL FREILICH",
    "TLE_LINE1": "1 46984U 20086A   23191.47828557 -.00000045  00000-0  70103-4 0  9994",
    "TLE_LINE2": "2 46984  66.0384 203.0798 0008107 269.3032  90.7054 12.80930320123065",
    "OBJECT_ID": "2020-086A",
    "OBJECT_NUMBER": "46984",
    "SEMIMAJOR_AXIS": "7715.869",
    "PERIOD": "112.418",
    "APOGEE": "1343.989",
    "PERIGEE": "1331.479",
    "DECAYED": "0"
  },
  {
    "COMMENT": "GENERATED VIA SPACETRACK.ORG API",
    "ORIGINATOR": "18 SPCS",
    "NORAD_CAT_ID": "46984",
    "OBJECT_NAME": "S6 MICHAEL FREILICH",
    "OBJECT_TYPE": "PAYLOAD",
    "CLASSIFICATION_TYPE": "U",
    "INTLDES": "20086A",
    "EPOCH": "2023-07-11 17:27:36",
    "EPOCH_MICROSECONDS": "12960",
    "MEAN_MOTION": "12.80930351",
    "ECCENTRICITY": "0.0008106",
    "INCLINATION": "66.0385",
    "RA_OF_ASC_NODE": "200.485",
    "ARG_OF_PERICENTER": "269.2675",
    "MEAN_ANOMALY": "90.7411",
    "EPHEMERIS_TYPE": "0",
    "ELEMENT_SET_NO": "999",
    "REV_AT_EPOCH": "12322",
    "BSTAR": "0.00011219",
    "MEAN_MOTION_DOT": "-0.00000035",
    "MEAN_MOTION_DDOT": "0",
    "FILE": "3955514",
    "TLE_LINE0": "0 S6 MICHAEL FREILICH",
    "TLE_LINE1": "1 46984U 20086A   23192.72750015 -.00000035  00000-0  11219-3 0  9997",
    "TLE_LINE2": "2 46984  66.0385 200.4850 0008106 269.2675  90.7411 12.80930351123226",
    "OBJECT_ID": "2020-086A",
    "OBJECT_NUMBER": "46984",
    "SEMIMAJOR_AXIS": "7715.869",
    "PERIOD": "112.418",
    "APOGEE": "1343.988",
    "PERIGEE": "1331.479",
    "DECAYED": "0"
  }
]